{"type": "FeatureCollection", "features": [{"type": "Feature", "properties": {"norad_id": 25730, "name": "FENGYUN 1C", "group": "fengyun-1c-debris", "lat": -57.91880199712349, "lon": 58.82332830577524, "alt_km": 819.049757282477, "timestamp": "2025-12-04T10:51:50.376317+00:00", "meta": {"OBJECT_NAME": "FENGYUN 1C", "OBJECT_ID": "1999-025A", "EPOCH": "2025-12-04T02:43:14.597760", "MEAN_MOTION": 14.25976663, "ECCENTRICITY": 0.0010972, "INCLINATION": 98.8854, "RA_OF_ASC_NODE": 44.0279, "ARG_OF_PERICENTER": 91.5129, "MEAN_ANOMALY": 268.7307, "EPHEMERIS_TYPE": 0, "CLASSIFICATION_TYPE": "U", "NORAD_CAT_ID": 25730, "ELEMENT_SET_NO": 999, "REV_AT_EPOCH": 37014, "BSTAR": 0.002392, "MEAN_MOTION_DOT": 5.667e-05, "MEAN_MOTION_DDOT": 0}, "tle": {"line1": "1 25730U 99025A   25338.11336340  .00005667  00000+0  23920-2 0  9995", "line2": "2 25730  98.8854  44.0279 0010972  91.5129 268.7307 14.25976663370140"}}, "geometry": {"type": "Point", "coordinates": [58.82332830577524, -57.91880199712349]}}, {"type": "Feature", "properties": {"norad_id": 29733, "name": "FENGYUN 1C DEB", "group": "fengyun-1c-debris", "lat": 28.482615593983276, "lon": -139.1684662622568, "alt_km": 1104.097679385115, "timestamp": "2025-12-04T10:51:50.376339+00:00", "meta": {"OBJECT_NAME": "FENGYUN 1C DEB", "OBJECT_ID": "1999-025X", "EPOCH": "2025-12-03T22:02:46.749696", "MEAN_MOTION": 12.96439393, "ECCENTRICITY": 0.05693856, "INCLINATION": 99.2254, "RA_OF_ASC_NODE": 35.3201, "ARG_OF_PERICENTER": 222.2604, "MEAN_ANOMALY": 323.4247, "EPHEMERIS_TYPE": 0, "CLASSIFICATION_TYPE": "U", "NORAD_CAT_ID": 29733, "ELEMENT_SET_NO": 999, "REV_AT_EPOCH": 89005, "BSTAR": 0.002857868, "MEAN_MOTION_DOT": 1.688e-05, "MEAN_MOTION_DDOT": 0}, "tle": {"line1": "1 29733U 99025X   25337.91859664  .00001688  00000+0  28579-2 0  9992", "line2": "2 29733  99.2254  35.3201 0569385 222.2604 323.4247 12.96439393890051"}}, "geometry": {"type": "Point", "coordinates": [-139.1684662622568, 28.482615593983276]}}, {"type": "Feature", "properties": {"norad_id": 29734, "name": "FENGYUN 1C DEB", "group": "fengyun-1c-debris", "lat": 40.66015356514133, "lon": 97.6885624567615, "alt_km": 1412.0213582632623, "timestamp": "2025-12-04T10:51:50.376353+00:00", "meta": {"OBJECT_NAME": "FENGYUN 1C DEB", "OBJECT_ID": "1999-025Y", "EPOCH": "2025-12-03T17:44:10.952160", "MEAN_MOTION": 12.91217266, "ECCENTRICITY": 0.06144673, "INCLINATION": 99.1696, "RA_OF_ASC_NODE": 269.1178, "ARG_OF_PERICENTER": 32.2973, "MEAN_ANOMALY": 23.8418, "EPHEMERIS_TYPE": 0, "CLASSIFICATION_TYPE": "U", "NORAD_CAT_ID": 29734, "ELEMENT_SET_NO": 999, "REV_AT_EPOCH": 88432, "BSTAR": 0.0065600446, "MEAN_MOTION_DOT": 4.037e-05, "MEAN_MOTION_DDOT": 0}, "tle": {"line1": "1 29734U 99025Y   25337.73901565  .00004037  00000+0  65600-2 0  9998", "line2": "2 29734  99.1696 269.1178 0614467  32.2973  23.8418 12.91217266884323"}}, "geometry": {"type": "Point", "coordinates": [97.6885624567615, 40.66015356514133]}}, {"type": "Feature", "properties": {"norad_id": 29735, "name": "FENGYUN 1C DEB", "group": "fengyun-1c-debris", "lat": 10.00510658732619, "lon": 76.46289951708125, "alt_km": 863.5306059021432, "timestamp": "2025-12-04T10:51:50.376365+00:00", "meta": {"OBJECT_NAME": "FENGYUN 1C DEB", "OBJECT_ID": "1999-025Z", "EPOCH": "2025-12-03T11:20:58.674912", "MEAN_MOTION": 12.7502722, "ECCENTRICITY": 0.06979804, "INCLINATION": 99.39, "RA_OF_ASC_NODE": 253.9741, "ARG_OF_PERICENTER": 195.9566, "MEAN_ANOMALY": 161.8492, "EPHEMERIS_TYPE": 0, "CLASSIFICATION_TYPE": "U", "NORAD_CAT_ID": 29735, "ELEMENT_SET_NO": 999, "REV_AT_EPOCH": 87297, "BSTAR": 0.0011842717, "MEAN_MOTION_DOT": 6.57e-06, "MEAN_MOTION_DDOT": 0}, "tle": {"line1": "1 29735U 99025Z   25337.47290133  .00000657  00000+0  11843-2 0  9996", "line2": "2 29735  99.3900 253.9741 0697980 195.9566 161.8492 12.75027220872971"}}, "geometry": {"type": "Point", "coordinates": [76.46289951708125, 10.00510658732619]}}, {"type": "Feature", "properties": {"norad_id": 29736, "name": "FENGYUN 1C DEB", "group": "fengyun-1c-debris", "lat": 78.70809631364479, "lon": 35.49722228439009, "alt_km": 1679.2991209471556, "timestamp": "2025-12-04T10:51:50.376376+00:00", "meta": {"OBJECT_NAME": "FENGYUN 1C DEB", "OBJECT_ID": "1999-025AA", "EPOCH": "2025-12-01T23:58:11.443584", "MEAN_MOTION": 12.57457881, "ECCENTRICITY": 0.07263731, "INCLINATION": 99.4012, "RA_OF_ASC_NODE": 157.4503, "ARG_OF_PERICENTER": 221.7005, "MEAN_ANOMALY": 298.6638, "EPHEMERIS_TYPE": 0, "CLASSIFICATION_TYPE": "U", "NORAD_CAT_ID": 29736, "ELEMENT_SET_NO": 999, "REV_AT_EPOCH": 86409, "BSTAR": 0.00220533, "MEAN_MOTION_DOT": 9.74e-06, "MEAN_MOTION_DDOT": 0}, "tle": {"line1": "1 29736U 99025AA  25335.99874356  .00000974  00000+0  22053-2 0  9994", "line2": "2 29736  99.4012 157.4503 0726373 221.7005 298.6638 12.57457881864091"}}, "geometry": {"type": "Point", "coordinates": [35.49722228439009, 78.70809631364479]}}, {"type": "Feature", "properties": {"norad_id": 29737, "name": "FENGYUN 1C DEB", "group": "fengyun-1c-debris", "lat": -42.407783704511395, "lon": -56.24276577381342, "alt_km": 1910.2576755824784, "timestamp": "2025-12-04T10:51:50.376387+00:00", "meta": {"OBJECT_NAME": "FENGYUN 1C DEB", "OBJECT_ID": "1999-025AB", "EPOCH": "2025-12-02T08:41:33.064800", "MEAN_MOTION": 12.6562936, "ECCENTRICITY": 0.06942754, "INCLINATION": 99.5814, "RA_OF_ASC_NODE": 293.1372, "ARG_OF_PERICENTER": 161.1217, "MEAN_ANOMALY": 352.73, "EPHEMERIS_TYPE": 0, "CLASSIFICATION_TYPE": "U", "NORAD_CAT_ID": 29737, "ELEMENT_SET_NO": 999, "REV_AT_EPOCH": 86737, "BSTAR": 0.0013678776, "MEAN_MOTION_DOT": 6.32e-06, "MEAN_MOTION_DDOT": 0}, "tle": {"line1": "1 29737U 99025AB  25336.36218825  .00000632  00000+0  13679-2 0  9995", "line2": "2 29737  99.5814 293.1372 0694275 161.1217 352.7300 12.65629360867376"}}, "geometry": {"type": "Point", "coordinates": [-56.24276577381342, -42.407783704511395]}}, {"type": "Feature", "properties": {"norad_id": 29738, "name": "FENGYUN 1C DEB", "group": "fengyun-1c-debris", "lat": 57.12904682576932, "lon": -18.247171913761765, "alt_km": 2072.319252367067, "timestamp": "2025-12-04T10:51:50.376398+00:00", "meta": {"OBJECT_NAME": "FENGYUN 1C DEB", "OBJECT_ID": "1999-025AC", "EPOCH": "2025-12-03T17:03:29.884320", "MEAN_MOTION": 12.60986655, "ECCENTRICITY": 0.08634469, "INCLINATION": 99.4117, "RA_OF_ASC_NODE": 146.2747, "ARG_OF_PERICENTER": 314.0324, "MEAN_ANOMALY": 39.2665, "EPHEMERIS_TYPE": 0, "CLASSIFICATION_TYPE": "U", "NORAD_CAT_ID": 29738, "ELEMENT_SET_NO": 999, "REV_AT_EPOCH": 86103, "BSTAR": 0.0021749724, "MEAN_MOTION_DOT": 1.612e-05, "MEAN_MOTION_DDOT": 0}, "tle": {"line1": "1 29738U 99025AC  25337.71076255  .00001612  00000+0  21750-2 0  9993", "line2": "2 29738  99.4117 146.2747 0863446 314.0324  39.2665 12.60986655861038"}}, "geometry": {"type": "Point", "coordinates": [-18.247171913761765, 57.12904682576932]}}, {"type": "Feature", "properties": {"norad_id": 29740, "name": "FENGYUN 1C DEB", "group": "fengyun-1c-debris", "lat": -78.8525498718049, "lon": -41.541857250941284, "alt_km": 1089.1637584234331, "timestamp": "2025-12-04T10:51:50.376409+00:00", "meta": {"OBJECT_NAME": "FENGYUN 1C DEB", "OBJECT_ID": "1999-025AE", "EPOCH": "2025-12-03T19:30:19.211904", "MEAN_MOTION": 12.08324593, "ECCENTRICITY": 0.09759588, "INCLINATION": 99.0432, "RA_OF_ASC_NODE": 191.9129, "ARG_OF_PERICENTER": 216.5451, "MEAN_ANOMALY": 136.5046, "EPHEMERIS_TYPE": 0, "CLASSIFICATION_TYPE": "U", "NORAD_CAT_ID": 29740, "ELEMENT_SET_NO": 999, "REV_AT_EPOCH": 82827, "BSTAR": -0.00013497926, "MEAN_MOTION_DOT": -8.1e-07, "MEAN_MOTION_DDOT": 0}, "tle": {"line1": "1 29740U 99025AE  25337.81272236 -.00000081  00000+0 -13498-3 0  9996", "line2": "2 29740  99.0432 191.9129 0975958 216.5451 136.5046 12.08324593828279"}}, "geometry": {"type": "Point", "coordinates": [-41.541857250941284, -78.8525498718049]}}, {"type": "Feature", "properties": {"norad_id": 29741, "name": "FENGYUN 1C DEB", "group": "fengyun-1c-debris", "lat": -23.34683595405712, "lon": -140.85938745036606, "alt_km": 1796.428470381089, "timestamp": "2025-12-04T10:51:50.376419+00:00", "meta": {"OBJECT_NAME": "FENGYUN 1C DEB", "OBJECT_ID": "1999-025AF", "EPOCH": "2025-12-03T15:16:15.951072", "MEAN_MOTION": 12.00886762, "ECCENTRICITY": 0.10233496, "INCLINATION": 99.1761, "RA_OF_ASC_NODE": 214.5558, "ARG_OF_PERICENTER": 81.7836, "MEAN_ANOMALY": 338.4998, "EPHEMERIS_TYPE": 0, "CLASSIFICATION_TYPE": "U", "NORAD_CAT_ID": 29741, "ELEMENT_SET_NO": 999, "REV_AT_EPOCH": 52074, "BSTAR": 0.0061428137, "MEAN_MOTION_DOT": 2.376e-05, "MEAN_MOTION_DDOT": 0}, "tle": {"line1": "1 29741U 99025AF  25337.63629573  .00002376  00000+0  61428-2 0  9999", "line2": "2 29741  99.1761 214.5558 1023349  81.7836 338.4998 12.00886762520745"}}, "geometry": {"type": "Point", "coordinates": [-140.85938745036606, -23.34683595405712]}}, {"type": "Feature", "properties": {"norad_id": 29748, "name": "FENGYUN 1C DEB", "group": "fengyun-1c-debris", "lat": -56.456042508870716, "lon": 76.36315559520668, "alt_km": 2268.8653232308907, "timestamp": "2025-12-04T10:51:50.376430+00:00", "meta": {"OBJECT_NAME": "FENGYUN 1C DEB", "OBJECT_ID": "1999-025AN", "EPOCH": "2025-12-03T07:16:41.439360", "MEAN_MOTION": 11.89330675, "ECCENTRICITY": 0.0823623, "INCLINATION": 99.8072, "RA_OF_ASC_NODE": 270.6311, "ARG_OF_PERICENTER": 25.6268, "MEAN_ANOMALY": 338.3319, "EPHEMERIS_TYPE": 0, "CLASSIFICATION_TYPE": "U", "NORAD_CAT_ID": 29748, "ELEMENT_SET_NO": 999, "REV_AT_EPOCH": 78621, "BSTAR": 0.20401, "MEAN_MOTION_DOT": 0.00037448, "MEAN_MOTION_DDOT": 0}, "tle": {"line1": "1 29748U 99025AN  25337.30325740  .00037448  00000+0  20401+0 0  9990", "line2": "2 29748  99.8072 270.6311 0823623  25.6268 338.3319 11.89330675786217"}}, "geometry": {"type": "Point", "coordinates": [76.36315559520668, -56.456042508870716]}}]}